[{"OBJECT_NAME":"STARLINK-6214","OBJECT_ID":"2023-064AJ","EPOCH":"2026-03-09T19:04:55.016544","MEAN_MOTION":15.2175363,"ECCENTRICITY":0.00030859,"INCLINATION":69.9921,"RA_OF_ASC_NODE":92.3376,"ARG_OF_PERICENTER":258.5553,"MEAN_ANOMALY":101.5271,"EPHEMERIS_TYPE":0,"CLASSIFICATION_TYPE":"U","NORAD_CAT_ID":56480,"ELEMENT_SET_NO":999,"REV_AT_EPOCH":15655,"BSTAR":0.00032568833,"MEAN_MOTION_DOT":7.292e-5,"MEAN_MOTION_DDOT":0},{"OBJECT_NAME":"SHIJIAN-26 (SJ-26)","OBJECT_ID":"2025-115A","EPOCH":"2026-03-09T23:52:58.004256","MEAN_MOTION":15.22558479,"ECCENTRICITY":0.00187049,"INCLINATION":97.4605,"RA_OF_ASC_NODE":148.1925,"ARG_OF_PERICENTER":345.0182,"MEAN_ANOMALY":15.0498,"EPHEMERIS_TYPE":0,"CLASSIFICATION_TYPE":"U","NORAD_CAT_ID":64199,"ELEMENT_SET_NO":999,"REV_AT_EPOCH":4334,"BSTAR":0.00030941368,"MEAN_MOTION_DOT":7.145e-5,"MEAN_MOTION_DDOT":0}]
